restId,restName,bio,streetAddress,city,state,zipCode,websiteLink,cName,cEmail,cPhoneNumber,photo,createdAt,updatedAt
1,Dabjam,"Cum sociis natoque penatibus et magnis dis parturient montes, nascetur ridiculus mus. Vivamus vestibulum sagittis sapien. Cum sociis natoque penatibus et magnis dis parturient montes, nascetur ridiculus mus.

Etiam vel augue. Vestibulum rutrum rutrum neque. Aenean auctor gravida sem.

Praesent id massa id nisl venenatis lacinia. Aenean sit amet justo. Morbi ut odio.",79252 Clemons Circle,Woburn,MA,01813,https://virginia.edu/quisque/ut/erat/curabitur.xml?morbi=nunc&vestibulum=commodo&velit=placerat&id=praesent&pretium=blandit&iaculis=nam&diam=nulla&erat=integer&fermentum=pede&justo=justo&nec=lacinia&condimentum=eget&neque=tincidunt&sapien=eget&placerat=tempus&ante=vel&nulla=pede&justo=morbi&aliquam=porttitor&quis=lorem&turpis=id&eget=ligula&elit=suspendisse&sodales=ornare&scelerisque=consequat&mauris=lectus&sit=in&amet=est&eros=risus&suspendisse=auctor&accumsan=sed&tortor=tristique&quis=in&turpis=tempus&sed=sit&ante=amet&vivamus=sem&tortor=fusce&duis=consequat&mattis=nulla&egestas=nisl&metus=nunc&aenean=nisl&fermentum=duis&donec=bibendum&ut=felis&mauris=sed&eget=interdum&massa=venenatis&tempor=turpis&convallis=enim&nulla=blandit&neque=mi&libero=in&convallis=porttitor&eget=pede&eleifend=justo&luctus=eu&ultricies=massa&eu=donec&nibh=dapibus&quisque=duis&id=at&justo=velit&sit=eu&amet=est&sapien=congue&dignissim=elementum&vestibulum=in&vestibulum=hac&ante=habitasse&ipsum=platea&primis=dictumst&in=morbi,Natalina Eldridge,neldridge0@chicagotribune.com,339-146-7681,http://dummyimage.com/140x100.png/cc0000/ffffff,2018-04-05 22:16:40,2024-04-06 07:30:09
2,Reallinks,,877 Park Meadow Lane,Springfield,MA,01152,https://plala.or.jp/aenean.html?cubilia=eget&curae=vulputate&duis=ut&faucibus=ultrices&accumsan=vel&odio=augue&curabitur=vestibulum&convallis=ante&duis=ipsum&consequat=primis&dui=in&nec=faucibus&nisi=orci&volutpat=luctus&eleifend=et&donec=ultrices&ut=posuere&dolor=cubilia&morbi=curae&vel=donec&lectus=pharetra&in=magna&quam=vestibulum&fringilla=aliquet&rhoncus=ultrices&mauris=erat&enim=tortor&leo=sollicitudin&rhoncus=mi&sed=sit&vestibulum=amet&sit=lobortis&amet=sapien&cursus=sapien&id=non&turpis=mi&integer=integer&aliquet=ac&massa=neque&id=duis&lobortis=bibendum&convallis=morbi&tortor=non&risus=quam&dapibus=nec&augue=dui&vel=luctus&accumsan=rutrum&tellus=nulla&nisi=tellus&eu=in&orci=sagittis&mauris=dui&lacinia=vel&sapien=nisl&quis=duis&libero=ac&nullam=nibh&sit=fusce&amet=lacus&turpis=purus&elementum=aliquet&ligula=at&vehicula=feugiat&consequat=non&morbi=pretium&a=quis&ipsum=lectus&integer=suspendisse&a=potenti&nibh=in&in=eleifend&quis=quam&justo=a&maecenas=odio&rhoncus=in&aliquam=hac&lacus=habitasse&morbi=platea&quis=dictumst&tortor=maecenas&id=ut&nulla=massa&ultrices=quis&aliquet=augue&maecenas=luctus&leo=tincidunt&odio=nulla&condimentum=mollis&id=molestie&luctus=lorem&nec=quisque&molestie=ut&sed=erat&justo=curabitur&pellentesque=gravida&viverra=nisi&pede=at,Barbey Dabbes,bdabbes1@cbc.ca,,http://dummyimage.com/152x100.png/cc0000/ffffff,2015-09-17 04:58:47,2022-06-17 21:45:35
3,Digitube,"Proin leo odio, porttitor id, consequat in, consequat ut, nulla. Sed accumsan felis. Ut at dolor quis odio consequat varius.

Integer ac leo. Pellentesque ultrices mattis odio. Donec vitae nisi.",6 Dwight Center,Cambridge,MA,02142,https://earthlink.net/eros.html?nulla=urna&ac=pretium&enim=nisl&in=ut&tempor=volutpat&turpis=sapien&nec=arcu&euismod=sed&scelerisque=augue&quam=aliquam&turpis=erat&adipiscing=volutpat&lorem=in&vitae=congue&mattis=etiam&nibh=justo&ligula=etiam&nec=pretium&sem=iaculis&duis=justo&aliquam=in&convallis=hac&nunc=habitasse&proin=platea&at=dictumst&turpis=etiam&a=faucibus&pede=cursus&posuere=urna&nonummy=ut&integer=tellus&non=nulla&velit=ut&donec=erat&diam=id&neque=mauris&vestibulum=vulputate&eget=elementum&vulputate=nullam&ut=varius&ultrices=nulla&vel=facilisi&augue=cras&vestibulum=non&ante=velit&ipsum=nec&primis=nisi&in=vulputate&faucibus=nonummy&orci=maecenas&luctus=tincidunt&et=lacus&ultrices=at&posuere=velit&cubilia=vivamus&curae=vel&donec=nulla&pharetra=eget&magna=eros&vestibulum=elementum&aliquet=pellentesque&ultrices=quisque&erat=porta&tortor=volutpat&sollicitudin=erat&mi=quisque&sit=erat&amet=eros&lobortis=viverra&sapien=eget&sapien=congue&non=eget&mi=semper&integer=rutrum&ac=nulla&neque=nunc&duis=purus&bibendum=phasellus&morbi=in&non=felis&quam=donec&nec=semper&dui=sapien&luctus=a&rutrum=libero&nulla=nam&tellus=dui&in=proin&sagittis=leo&dui=odio&vel=porttitor&nisl=id&duis=consequat&ac=in&nibh=consequat&fusce=ut&lacus=nulla&purus=sed,Orelie Basham,obasham2@census.gov,978-791-7109,http://dummyimage.com/177x100.png/ff4444/ffffff,2019-02-07 19:56:49,2021-05-13 02:07:49
4,Yakitri,"Nam ultrices, libero non mattis pulvinar, nulla pede ullamcorper augue, a suscipit nulla elit ac nulla. Sed vel enim sit amet nunc viverra dapibus. Nulla suscipit ligula in lacus.",629 Golf View Plaza,Springfield,MA,01114,https://utexas.edu/adipiscing/lorem.jsp?lectus=lacinia&aliquam=sapien&sit=quis&amet=libero&diam=nullam&in=sit&magna=amet&bibendum=turpis&imperdiet=elementum&nullam=ligula&orci=vehicula&pede=consequat&venenatis=morbi&non=a&sodales=ipsum&sed=integer&tincidunt=a&eu=nibh&felis=in&fusce=quis&posuere=justo&felis=maecenas&sed=rhoncus&lacus=aliquam&morbi=lacus&sem=morbi&mauris=quis&laoreet=tortor&ut=id&rhoncus=nulla&aliquet=ultrices&pulvinar=aliquet&sed=maecenas&nisl=leo&nunc=odio&rhoncus=condimentum&dui=id&vel=luctus&sem=nec&sed=molestie&sagittis=sed&nam=justo&congue=pellentesque&risus=viverra&semper=pede&porta=ac&volutpat=diam&quam=cras&pede=pellentesque&lobortis=volutpat,Bobbi Eddis,beddis3@pinterest.com,,http://dummyimage.com/103x100.png/cc0000/ffffff,2017-06-17 06:02:22,2023-03-05 08:44:08
5,Realfire,,35 Dennis Court,Boston,MA,02298,https://linkedin.com/sapien/a/libero/nam/dui/proin/leo.html?luctus=arcu&et=adipiscing&ultrices=molestie&posuere=hendrerit&cubilia=at&curae=vulputate&donec=vitae&pharetra=nisl&magna=aenean&vestibulum=lectus&aliquet=pellentesque&ultrices=eget&erat=nunc&tortor=donec&sollicitudin=quis&mi=orci,Stanford Synke,ssynke4@drupal.org,617-890-0506,http://dummyimage.com/100x100.png/ff4444/ffffff,2019-12-19 03:24:04,2023-12-21 00:37:14
6,Browsetype,"Maecenas tristique, est et tempus semper, est quam pharetra magna, ac consequat metus sapien ut nunc. Vestibulum ante ipsum primis in faucibus orci luctus et ultrices posuere cubilia Curae; Mauris viverra diam vitae quam. Suspendisse potenti.",6 Huxley Hill,Worcester,MA,01605,http://ow.ly/lacus.jpg?nibh=accumsan&in=tellus&quis=nisi&justo=eu&maecenas=orci&rhoncus=mauris&aliquam=lacinia&lacus=sapien&morbi=quis&quis=libero&tortor=nullam&id=sit&nulla=amet&ultrices=turpis&aliquet=elementum&maecenas=ligula&leo=vehicula&odio=consequat&condimentum=morbi&id=a&luctus=ipsum&nec=integer&molestie=a&sed=nibh&justo=in&pellentesque=quis&viverra=justo&pede=maecenas&ac=rhoncus&diam=aliquam&cras=lacus&pellentesque=morbi&volutpat=quis&dui=tortor&maecenas=id&tristique=nulla&est=ultrices&et=aliquet&tempus=maecenas&semper=leo&est=odio&quam=condimentum&pharetra=id&magna=luctus,Hilda Attwell,hattwell5@addthis.com,508-142-3443,,2020-10-13 06:28:06,2024-06-17 19:05:32
7,Oozz,"In congue. Etiam justo. Etiam pretium iaculis justo.

In hac habitasse platea dictumst. Etiam faucibus cursus urna. Ut tellus.

Nulla ut erat id mauris vulputate elementum. Nullam varius. Nulla facilisi.",37956 Golf Place,New Bedford,MA,02745,https://comsenz.com/mauris/morbi/non/lectus/aliquam/sit.jsp?cubilia=commodo&curae=vulputate&duis=justo&faucibus=in&accumsan=blandit&odio=ultrices&curabitur=enim&convallis=lorem&duis=ipsum&consequat=dolor&dui=sit&nec=amet&nisi=consectetuer&volutpat=adipiscing&eleifend=elit&donec=proin&ut=interdum&dolor=mauris&morbi=non&vel=ligula&lectus=pellentesque&in=ultrices&quam=phasellus&fringilla=id&rhoncus=sapien&mauris=in&enim=sapien&leo=iaculis&rhoncus=congue&sed=vivamus&vestibulum=metus&sit=arcu&amet=adipiscing&cursus=molestie&id=hendrerit&turpis=at&integer=vulputate&aliquet=vitae&massa=nisl,Rosabelle Challiner,rchalliner6@infoseek.co.jp,508-276-8325,http://dummyimage.com/230x100.png/cc0000/ffffff,2020-06-04 22:13:51,2021-07-04 12:24:08
8,Zoombox,"Praesent blandit. Nam nulla. Integer pede justo, lacinia eget, tincidunt eget, tempus vel, pede.

Morbi porttitor lorem id ligula. Suspendisse ornare consequat lectus. In est risus, auctor sed, tristique in, tempus sit amet, sem.

Fusce consequat. Nulla nisl. Nunc nisl.",1 Hoffman Parkway,Newton,MA,02458,http://google.com.br/mattis/nibh/ligula/nec/sem/duis/aliquam.html?eros=in&viverra=lectus&eget=pellentesque&congue=at&eget=nulla&semper=suspendisse&rutrum=potenti&nulla=cras&nunc=in&purus=purus&phasellus=eu&in=magna&felis=vulputate&donec=luctus&semper=cum&sapien=sociis&a=natoque&libero=penatibus&nam=et&dui=magnis&proin=dis&leo=parturient&odio=montes,Tabor Emney,temney7@usa.gov,781-975-2095,http://dummyimage.com/230x100.png/ff4444/ffffff,2016-06-24 21:18:06,2024-06-22 00:47:30
9,Voolith,"Cras non velit nec nisi vulputate nonummy. Maecenas tincidunt lacus at velit. Vivamus vel nulla eget eros elementum pellentesque.

Quisque porta volutpat erat. Quisque erat eros, viverra eget, congue eget, semper rutrum, nulla. Nunc purus.",03 Eastlawn Terrace,Boston,MA,02119,https://histats.com/congue/elementum.json?cursus=in&urna=ante&ut=vestibulum&tellus=ante&nulla=ipsum&ut=primis&erat=in&id=faucibus&mauris=orci&vulputate=luctus&elementum=et&nullam=ultrices&varius=posuere&nulla=cubilia&facilisi=curae&cras=duis&non=faucibus&velit=accumsan&nec=odio&nisi=curabitur&vulputate=convallis&nonummy=duis&maecenas=consequat&tincidunt=dui&lacus=nec&at=nisi&velit=volutpat&vivamus=eleifend&vel=donec&nulla=ut&eget=dolor&eros=morbi&elementum=vel&pellentesque=lectus&quisque=in&porta=quam&volutpat=fringilla&erat=rhoncus&quisque=mauris&erat=enim&eros=leo&viverra=rhoncus&eget=sed&congue=vestibulum,Donnie Antonin,dantonin8@people.com.cn,508-931-5097,http://dummyimage.com/237x100.png/ff4444/ffffff,2015-01-07 04:24:40,2022-12-10 15:30:11
10,Zoovu,"Quisque porta volutpat erat. Quisque erat eros, viverra eget, congue eget, semper rutrum, nulla. Nunc purus.

Phasellus in felis. Donec semper sapien a libero. Nam dui.",0 Northwestern Circle,Woburn,MA,01813,http://pen.io/proin/eu/mi/nulla/ac.jpg?integer=nunc&ac=proin&leo=at&pellentesque=turpis&ultrices=a&mattis=pede,Ilaire Bravington,ibravington9@virginia.edu,339-166-4787,http://dummyimage.com/224x100.png/dddddd/000000,2017-09-27 03:52:14,2022-10-02 17:20:06
11,Demimbu,"Integer tincidunt ante vel ipsum. Praesent blandit lacinia erat. Vestibulum sed magna at nunc commodo placerat.

Praesent blandit. Nam nulla. Integer pede justo, lacinia eget, tincidunt eget, tempus vel, pede.

Morbi porttitor lorem id ligula. Suspendisse ornare consequat lectus. In est risus, auctor sed, tristique in, tempus sit amet, sem.",67 Laurel Alley,Lynn,MA,01905,https://yellowpages.com/leo.aspx?ipsum=erat&primis=vestibulum&in=sed&faucibus=magna&orci=at&luctus=nunc&et=commodo&ultrices=placerat&posuere=praesent&cubilia=blandit&curae=nam&nulla=nulla&dapibus=integer&dolor=pede&vel=justo&est=lacinia&donec=eget&odio=tincidunt&justo=eget&sollicitudin=tempus&ut=vel&suscipit=pede&a=morbi&feugiat=porttitor&et=lorem&eros=id&vestibulum=ligula&ac=suspendisse&est=ornare&lacinia=consequat&nisi=lectus&venenatis=in&tristique=est&fusce=risus&congue=auctor&diam=sed&id=tristique&ornare=in&imperdiet=tempus&sapien=sit&urna=amet&pretium=sem&nisl=fusce&ut=consequat&volutpat=nulla&sapien=nisl&arcu=nunc&sed=nisl&augue=duis&aliquam=bibendum&erat=felis&volutpat=sed&in=interdum&congue=venenatis&etiam=turpis&justo=enim&etiam=blandit&pretium=mi&iaculis=in&justo=porttitor&in=pede&hac=justo&habitasse=eu&platea=massa&dictumst=donec&etiam=dapibus&faucibus=duis&cursus=at&urna=velit&ut=eu&tellus=est&nulla=congue&ut=elementum&erat=in&id=hac&mauris=habitasse&vulputate=platea&elementum=dictumst&nullam=morbi&varius=vestibulum,Amandi Cubbon,acubbona@nsw.gov.au,339-551-6534,http://dummyimage.com/193x100.png/cc0000/ffffff,2014-09-29 16:51:33,2021-01-23 02:42:49
12,Youbridge,,639 John Wall Parkway,Springfield,MA,01152,https://etsy.com/pede.png?eget=sed&rutrum=ante&at=vivamus&lorem=tortor&integer=duis&tincidunt=mattis&ante=egestas&vel=metus&ipsum=aenean&praesent=fermentum&blandit=donec&lacinia=ut&erat=mauris&vestibulum=eget&sed=massa&magna=tempor&at=convallis&nunc=nulla&commodo=neque&placerat=libero&praesent=convallis&blandit=eget&nam=eleifend&nulla=luctus&integer=ultricies&pede=eu&justo=nibh&lacinia=quisque&eget=id&tincidunt=justo&eget=sit&tempus=amet,Chryste Dudbridge,cdudbridgeb@chronoengine.com,413-766-0572,http://dummyimage.com/202x100.png/5fa2dd/ffffff,2015-11-26 06:40:17,2023-01-31 17:55:48
13,Oozz,"Suspendisse potenti. In eleifend quam a odio. In hac habitasse platea dictumst.

Maecenas ut massa quis augue luctus tincidunt. Nulla mollis molestie lorem. Quisque ut erat.

Curabitur gravida nisi at nibh. In hac habitasse platea dictumst. Aliquam augue quam, sollicitudin vitae, consectetuer eget, rutrum at, lorem.",4178 Maple Street,Boston,MA,02203,https://123-reg.co.uk/posuere/cubilia/curae/nulla/dapibus/dolor.js?ut=dui&mauris=maecenas&eget=tristique&massa=est&tempor=et&convallis=tempus&nulla=semper&neque=est&libero=quam&convallis=pharetra&eget=magna&eleifend=ac&luctus=consequat&ultricies=metus&eu=sapien&nibh=ut&quisque=nunc&id=vestibulum&justo=ante&sit=ipsum&amet=primis&sapien=in&dignissim=faucibus&vestibulum=orci&vestibulum=luctus&ante=et&ipsum=ultrices&primis=posuere&in=cubilia&faucibus=curae&orci=mauris&luctus=viverra&et=diam&ultrices=vitae&posuere=quam&cubilia=suspendisse&curae=potenti&nulla=nullam&dapibus=porttitor&dolor=lacus&vel=at&est=turpis&donec=donec&odio=posuere&justo=metus&sollicitudin=vitae&ut=ipsum&suscipit=aliquam&a=non&feugiat=mauris&et=morbi&eros=non&vestibulum=lectus&ac=aliquam&est=sit&lacinia=amet&nisi=diam&venenatis=in&tristique=magna&fusce=bibendum&congue=imperdiet&diam=nullam&id=orci&ornare=pede&imperdiet=venenatis&sapien=non&urna=sodales&pretium=sed&nisl=tincidunt&ut=eu&volutpat=felis&sapien=fusce&arcu=posuere&sed=felis&augue=sed&aliquam=lacus&erat=morbi&volutpat=sem&in=mauris&congue=laoreet&etiam=ut&justo=rhoncus&etiam=aliquet&pretium=pulvinar&iaculis=sed&justo=nisl&in=nunc&hac=rhoncus&habitasse=dui&platea=vel&dictumst=sem&etiam=sed&faucibus=sagittis&cursus=nam,Antin Stockton,astocktonc@fastcompany.com,617-928-6498,http://dummyimage.com/250x100.png/5fa2dd/ffffff,2015-01-05 02:43:19,2022-05-22 09:28:20
14,Ntags,"Cum sociis natoque penatibus et magnis dis parturient montes, nascetur ridiculus mus. Vivamus vestibulum sagittis sapien. Cum sociis natoque penatibus et magnis dis parturient montes, nascetur ridiculus mus.

Etiam vel augue. Vestibulum rutrum rutrum neque. Aenean auctor gravida sem.",52040 Hagan Road,Boston,MA,02114,https://smh.com.au/diam/in.json?quam=proin&sollicitudin=interdum&vitae=mauris&consectetuer=non&eget=ligula&rutrum=pellentesque&at=ultrices&lorem=phasellus&integer=id&tincidunt=sapien&ante=in&vel=sapien&ipsum=iaculis&praesent=congue&blandit=vivamus&lacinia=metus&erat=arcu&vestibulum=adipiscing&sed=molestie&magna=hendrerit&at=at&nunc=vulputate&commodo=vitae&placerat=nisl&praesent=aenean&blandit=lectus&nam=pellentesque&nulla=eget&integer=nunc&pede=donec&justo=quis&lacinia=orci&eget=eget&tincidunt=orci&eget=vehicula&tempus=condimentum&vel=curabitur&pede=in&morbi=libero&porttitor=ut&lorem=massa&id=volutpat&ligula=convallis&suspendisse=morbi&ornare=odio&consequat=odio&lectus=elementum&in=eu&est=interdum&risus=eu&auctor=tincidunt&sed=in&tristique=leo&in=maecenas&tempus=pulvinar&sit=lobortis&amet=est&sem=phasellus&fusce=sit&consequat=amet&nulla=erat&nisl=nulla&nunc=tempus&nisl=vivamus&duis=in&bibendum=felis&felis=eu&sed=sapien&interdum=cursus&venenatis=vestibulum&turpis=proin&enim=eu,Darsie Fetherby,dfetherbyd@adobe.com,781-947-1627,http://dummyimage.com/137x100.png/ff4444/ffffff,2017-01-15 00:30:00,2024-07-01 15:21:07
15,Tagchat,"Cras mi pede, malesuada in, imperdiet et, commodo vulputate, justo. In blandit ultrices enim. Lorem ipsum dolor sit amet, consectetuer adipiscing elit.",90728 Morningstar Terrace,Newton,MA,02458,https://psu.edu/facilisi.jpg?nibh=justo&in=pellentesque&lectus=viverra&pellentesque=pede&at=ac&nulla=diam&suspendisse=cras&potenti=pellentesque&cras=volutpat&in=dui&purus=maecenas&eu=tristique&magna=est&vulputate=et&luctus=tempus&cum=semper&sociis=est&natoque=quam&penatibus=pharetra&et=magna&magnis=ac&dis=consequat&parturient=metus&montes=sapien&nascetur=ut&ridiculus=nunc&mus=vestibulum&vivamus=ante,Randal Goulston,rgoulstone@bigcartel.com,617-855-3120,http://dummyimage.com/174x100.png/cc0000/ffffff,2017-03-28 09:05:46,2021-10-01 12:09:16
16,Skibox,Phasellus in felis. Donec semper sapien a libero. Nam dui.,37 Tomscot Street,Watertown,MA,02472,https://indiegogo.com/risus/praesent/lectus.jsp?platea=sit&dictumst=amet&morbi=eleifend&vestibulum=pede&velit=libero&id=quis&pretium=orci&iaculis=nullam&diam=molestie&erat=nibh&fermentum=in&justo=lectus&nec=pellentesque&condimentum=at&neque=nulla&sapien=suspendisse&placerat=potenti&ante=cras&nulla=in&justo=purus&aliquam=eu&quis=magna&turpis=vulputate&eget=luctus&elit=cum&sodales=sociis&scelerisque=natoque&mauris=penatibus&sit=et&amet=magnis&eros=dis&suspendisse=parturient&accumsan=montes&tortor=nascetur&quis=ridiculus&turpis=mus&sed=vivamus&ante=vestibulum&vivamus=sagittis&tortor=sapien&duis=cum&mattis=sociis&egestas=natoque&metus=penatibus&aenean=et&fermentum=magnis&donec=dis&ut=parturient&mauris=montes&eget=nascetur&massa=ridiculus&tempor=mus&convallis=etiam&nulla=vel&neque=augue&libero=vestibulum&convallis=rutrum&eget=rutrum&eleifend=neque&luctus=aenean&ultricies=auctor&eu=gravida&nibh=sem&quisque=praesent&id=id&justo=massa&sit=id&amet=nisl&sapien=venenatis&dignissim=lacinia&vestibulum=aenean,Delora Kersey,dkerseyf@about.com,781-957-6635,http://dummyimage.com/135x100.png/ff4444/ffffff,2016-05-08 09:37:12,2022-11-27 08:33:56
17,Mita,Integer ac leo. Pellentesque ultrices mattis odio. Donec vitae nisi.,5 Sundown Court,Boston,MA,02163,https://dailymail.co.uk/iaculis.xml?diam=sapien&erat=varius&fermentum=ut&justo=blandit&nec=non&condimentum=interdum&neque=in&sapien=ante&placerat=vestibulum&ante=ante,Wakefield Dibdale,wdibdaleg@purevolume.com,,http://dummyimage.com/215x100.png/dddddd/000000,2018-05-17 13:03:05,2024-03-29 22:39:02
18,Yata,"Mauris enim leo, rhoncus sed, vestibulum sit amet, cursus id, turpis. Integer aliquet, massa id lobortis convallis, tortor risus dapibus augue, vel accumsan tellus nisi eu orci. Mauris lacinia sapien quis libero.

Nullam sit amet turpis elementum ligula vehicula consequat. Morbi a ipsum. Integer a nibh.",05565 Summit Way,Lynn,MA,01905,https://businessweek.com/velit/donec/diam/neque/vestibulum/eget.jsp?ornare=duis&consequat=at&lectus=velit&in=eu&est=est&risus=congue&auctor=elementum&sed=in&tristique=hac&in=habitasse&tempus=platea&sit=dictumst&amet=morbi&sem=vestibulum&fusce=velit&consequat=id&nulla=pretium&nisl=iaculis&nunc=diam&nisl=erat&duis=fermentum&bibendum=justo&felis=nec&sed=condimentum&interdum=neque&venenatis=sapien&turpis=placerat&enim=ante&blandit=nulla&mi=justo&in=aliquam&porttitor=quis&pede=turpis&justo=eget&eu=elit&massa=sodales&donec=scelerisque&dapibus=mauris&duis=sit&at=amet&velit=eros&eu=suspendisse&est=accumsan&congue=tortor&elementum=quis&in=turpis&hac=sed&habitasse=ante&platea=vivamus&dictumst=tortor&morbi=duis&vestibulum=mattis&velit=egestas&id=metus&pretium=aenean&iaculis=fermentum&diam=donec&erat=ut&fermentum=mauris&justo=eget&nec=massa&condimentum=tempor&neque=convallis&sapien=nulla&placerat=neque&ante=libero&nulla=convallis&justo=eget&aliquam=eleifend&quis=luctus&turpis=ultricies&eget=eu&elit=nibh&sodales=quisque&scelerisque=id&mauris=justo,Aurora Teeney,ateeneyh@wired.com,781-326-5535,http://dummyimage.com/149x100.png/dddddd/000000,2020-01-15 07:43:00,2021-11-08 07:32:02
19,Ozu,"Sed sagittis. Nam congue, risus semper porta volutpat, quam pede lobortis ligula, sit amet eleifend pede libero quis orci. Nullam molestie nibh in lectus.",87 Bowman Circle,Woburn,MA,01813,http://flavors.me/sed/justo/pellentesque/viverra/pede/ac.html?nulla=varius&facilisi=integer&cras=ac&non=leo&velit=pellentesque&nec=ultrices&nisi=mattis&vulputate=odio&nonummy=donec&maecenas=vitae&tincidunt=nisi&lacus=nam&at=ultrices&velit=libero&vivamus=non&vel=mattis&nulla=pulvinar&eget=nulla&eros=pede&elementum=ullamcorper&pellentesque=augue&quisque=a&porta=suscipit&volutpat=nulla&erat=elit&quisque=ac&erat=nulla&eros=sed&viverra=vel&eget=enim&congue=sit&eget=amet&semper=nunc&rutrum=viverra&nulla=dapibus&nunc=nulla&purus=suscipit&phasellus=ligula&in=in,Concordia Rowan,crowani@globo.com,339-455-7877,http://dummyimage.com/127x100.png/5fa2dd/ffffff,2016-09-19 04:38:28,2024-01-06 17:56:16
20,Youfeed,"Maecenas ut massa quis augue luctus tincidunt. Nulla mollis molestie lorem. Quisque ut erat.

Curabitur gravida nisi at nibh. In hac habitasse platea dictumst. Aliquam augue quam, sollicitudin vitae, consectetuer eget, rutrum at, lorem.

Integer tincidunt ante vel ipsum. Praesent blandit lacinia erat. Vestibulum sed magna at nunc commodo placerat.",325 Bay Park,Springfield,MA,01114,http://eepurl.com/convallis.html?rhoncus=tempus&mauris=vel&enim=pede&leo=morbi&rhoncus=porttitor&sed=lorem&vestibulum=id&sit=ligula&amet=suspendisse&cursus=ornare&id=consequat&turpis=lectus&integer=in&aliquet=est,Odella Culter,oculterj@ask.com,413-388-1043,http://dummyimage.com/154x100.png/dddddd/000000,2017-07-23 06:36:36,2023-02-03 22:36:49
21,Skilith,"Cum sociis natoque penatibus et magnis dis parturient montes, nascetur ridiculus mus. Vivamus vestibulum sagittis sapien. Cum sociis natoque penatibus et magnis dis parturient montes, nascetur ridiculus mus.

Etiam vel augue. Vestibulum rutrum rutrum neque. Aenean auctor gravida sem.

Praesent id massa id nisl venenatis lacinia. Aenean sit amet justo. Morbi ut odio.",74 Victoria Point,Boston,MA,02124,https://tinypic.com/nunc/viverra/dapibus/nulla/suscipit.html?rutrum=nonummy&ac=integer&lobortis=non&vel=velit&dapibus=donec,Darrel Rainger,draingerk@wunderground.com,,http://dummyimage.com/179x100.png/ff4444/ffffff,2014-12-03 22:48:11,2023-03-24 12:30:57
22,Jetpulse,"In quis justo. Maecenas rhoncus aliquam lacus. Morbi quis tortor id nulla ultrices aliquet.

Maecenas leo odio, condimentum id, luctus nec, molestie sed, justo. Pellentesque viverra pede ac diam. Cras pellentesque volutpat dui.",6247 Daystar Lane,Springfield,MA,01114,http://vk.com/viverra/eget/congue/eget/semper.png?velit=at&nec=velit&nisi=eu&vulputate=est&nonummy=congue&maecenas=elementum&tincidunt=in&lacus=hac&at=habitasse&velit=platea&vivamus=dictumst&vel=morbi&nulla=vestibulum&eget=velit&eros=id&elementum=pretium&pellentesque=iaculis&quisque=diam&porta=erat&volutpat=fermentum&erat=justo&quisque=nec&erat=condimentum&eros=neque&viverra=sapien&eget=placerat&congue=ante&eget=nulla&semper=justo&rutrum=aliquam&nulla=quis&nunc=turpis&purus=eget&phasellus=elit&in=sodales&felis=scelerisque&donec=mauris&semper=sit&sapien=amet&a=eros&libero=suspendisse&nam=accumsan&dui=tortor&proin=quis&leo=turpis&odio=sed&porttitor=ante&id=vivamus&consequat=tortor&in=duis&consequat=mattis&ut=egestas&nulla=metus&sed=aenean&accumsan=fermentum&felis=donec&ut=ut&at=mauris&dolor=eget&quis=massa&odio=tempor&consequat=convallis&varius=nulla&integer=neque&ac=libero&leo=convallis&pellentesque=eget&ultrices=eleifend&mattis=luctus&odio=ultricies&donec=eu&vitae=nibh&nisi=quisque&nam=id&ultrices=justo&libero=sit&non=amet&mattis=sapien&pulvinar=dignissim&nulla=vestibulum&pede=vestibulum&ullamcorper=ante&augue=ipsum&a=primis&suscipit=in&nulla=faucibus&elit=orci&ac=luctus&nulla=et&sed=ultrices&vel=posuere&enim=cubilia&sit=curae&amet=nulla&nunc=dapibus,Amandie Terzza,aterzzal@ning.com,413-519-2280,http://dummyimage.com/209x100.png/dddddd/000000,2014-01-31 04:19:58,2021-09-24 18:33:43
23,Meevee,"Proin leo odio, porttitor id, consequat in, consequat ut, nulla. Sed accumsan felis. Ut at dolor quis odio consequat varius.",533 Boyd Point,Boston,MA,02216,https://creativecommons.org/id/nisl/venenatis/lacinia.xml?pellentesque=non&ultrices=ligula&phasellus=pellentesque&id=ultrices&sapien=phasellus&in=id&sapien=sapien&iaculis=in&congue=sapien&vivamus=iaculis&metus=congue&arcu=vivamus&adipiscing=metus&molestie=arcu&hendrerit=adipiscing&at=molestie&vulputate=hendrerit&vitae=at&nisl=vulputate&aenean=vitae&lectus=nisl&pellentesque=aenean&eget=lectus&nunc=pellentesque&donec=eget&quis=nunc&orci=donec&eget=quis&orci=orci&vehicula=eget&condimentum=orci&curabitur=vehicula&in=condimentum&libero=curabitur&ut=in&massa=libero&volutpat=ut&convallis=massa&morbi=volutpat&odio=convallis&odio=morbi&elementum=odio&eu=odio&interdum=elementum&eu=eu&tincidunt=interdum&in=eu&leo=tincidunt&maecenas=in&pulvinar=leo&lobortis=maecenas,Myrilla Aymerich,maymerichm@miitbeian.gov.cn,617-711-1664,http://dummyimage.com/246x100.png/5fa2dd/ffffff,2015-12-10 15:22:32,2021-09-12 05:41:24
24,Mudo,Duis consequat dui nec nisi volutpat eleifend. Donec ut dolor. Morbi vel lectus in quam fringilla rhoncus.,8312 Hazelcrest Plaza,Worcester,MA,01654,https://trellian.com/ac/neque/duis/bibendum.json?risus=condimentum&semper=neque&porta=sapien&volutpat=placerat&quam=ante&pede=nulla&lobortis=justo&ligula=aliquam&sit=quis,Northrup Surgey,nsurgeyn@hp.com,508-494-2302,http://dummyimage.com/177x100.png/dddddd/000000,2014-04-18 20:05:02,2023-06-22 03:24:30
25,Digitube,"Etiam vel augue. Vestibulum rutrum rutrum neque. Aenean auctor gravida sem.

Praesent id massa id nisl venenatis lacinia. Aenean sit amet justo. Morbi ut odio.

Cras mi pede, malesuada in, imperdiet et, commodo vulputate, justo. In blandit ultrices enim. Lorem ipsum dolor sit amet, consectetuer adipiscing elit.",75413 Sloan Road,Boston,MA,02163,https://domainmarket.com/amet/turpis.jsp?eros=justo&vestibulum=etiam&ac=pretium&est=iaculis&lacinia=justo,Burt Wattingham,bwattinghamo@soup.io,339-138-6205,http://dummyimage.com/101x100.png/5fa2dd/ffffff,2020-04-18 12:12:11,2024-02-26 03:27:36
26,Fivebridge,"Phasellus sit amet erat. Nulla tempus. Vivamus in felis eu sapien cursus vestibulum.

Proin eu mi. Nulla ac enim. In tempor, turpis nec euismod scelerisque, quam turpis adipiscing lorem, vitae mattis nibh ligula nec sem.",5 Doe Crossing Street,Brockton,MA,02305,http://ftc.gov/etiam/vel/augue/vestibulum/rutrum/rutrum/neque.jpg?turpis=neque&a=aenean&pede=auctor&posuere=gravida&nonummy=sem&integer=praesent&non=id&velit=massa&donec=id&diam=nisl&neque=venenatis&vestibulum=lacinia&eget=aenean&vulputate=sit&ut=amet&ultrices=justo&vel=morbi&augue=ut&vestibulum=odio&ante=cras&ipsum=mi&primis=pede&in=malesuada&faucibus=in&orci=imperdiet&luctus=et&et=commodo&ultrices=vulputate&posuere=justo&cubilia=in&curae=blandit&donec=ultrices&pharetra=enim&magna=lorem&vestibulum=ipsum&aliquet=dolor&ultrices=sit&erat=amet&tortor=consectetuer&sollicitudin=adipiscing&mi=elit&sit=proin&amet=interdum&lobortis=mauris&sapien=non&sapien=ligula&non=pellentesque&mi=ultrices&integer=phasellus&ac=id&neque=sapien&duis=in&bibendum=sapien&morbi=iaculis&non=congue&quam=vivamus&nec=metus&dui=arcu&luctus=adipiscing&rutrum=molestie&nulla=hendrerit&tellus=at&in=vulputate&sagittis=vitae&dui=nisl&vel=aenean&nisl=lectus&duis=pellentesque&ac=eget&nibh=nunc&fusce=donec&lacus=quis&purus=orci&aliquet=eget&at=orci&feugiat=vehicula&non=condimentum&pretium=curabitur&quis=in&lectus=libero&suspendisse=ut&potenti=massa,Crosby Bending,cbendingp@linkedin.com,,http://dummyimage.com/120x100.png/5fa2dd/ffffff,2015-07-07 00:29:50,2022-11-04 12:18:38
27,Camido,"Aliquam quis turpis eget elit sodales scelerisque. Mauris sit amet eros. Suspendisse accumsan tortor quis turpis.

Sed ante. Vivamus tortor. Duis mattis egestas metus.

Aenean fermentum. Donec ut mauris eget massa tempor convallis. Nulla neque libero, convallis eget, eleifend luctus, ultricies eu, nibh.",00 Bluejay Plaza,Springfield,MA,01114,http://i2i.jp/ullamcorper/augue.png?turpis=nam&sed=congue&ante=risus&vivamus=semper&tortor=porta&duis=volutpat&mattis=quam&egestas=pede&metus=lobortis&aenean=ligula&fermentum=sit&donec=amet&ut=eleifend&mauris=pede&eget=libero&massa=quis&tempor=orci&convallis=nullam&nulla=molestie&neque=nibh&libero=in&convallis=lectus&eget=pellentesque&eleifend=at&luctus=nulla&ultricies=suspendisse&eu=potenti&nibh=cras&quisque=in&id=purus&justo=eu&sit=magna&amet=vulputate&sapien=luctus&dignissim=cum&vestibulum=sociis&vestibulum=natoque&ante=penatibus&ipsum=et&primis=magnis&in=dis&faucibus=parturient&orci=montes&luctus=nascetur&et=ridiculus&ultrices=mus&posuere=vivamus&cubilia=vestibulum&curae=sagittis&nulla=sapien&dapibus=cum&dolor=sociis&vel=natoque&est=penatibus&donec=et&odio=magnis&justo=dis&sollicitudin=parturient&ut=montes&suscipit=nascetur&a=ridiculus&feugiat=mus&et=etiam&eros=vel&vestibulum=augue&ac=vestibulum&est=rutrum&lacinia=rutrum&nisi=neque&venenatis=aenean&tristique=auctor&fusce=gravida&congue=sem&diam=praesent&id=id&ornare=massa&imperdiet=id&sapien=nisl&urna=venenatis&pretium=lacinia&nisl=aenean&ut=sit&volutpat=amet&sapien=justo&arcu=morbi&sed=ut&augue=odio&aliquam=cras&erat=mi&volutpat=pede,Dex Sleightholm,dsleightholmq@google.co.uk,413-592-0002,http://dummyimage.com/225x100.png/5fa2dd/ffffff,2017-04-09 01:44:23,2024-02-19 20:20:30
28,Realcube,"Proin leo odio, porttitor id, consequat in, consequat ut, nulla. Sed accumsan felis. Ut at dolor quis odio consequat varius.

Integer ac leo. Pellentesque ultrices mattis odio. Donec vitae nisi.",31 Anderson Junction,Boston,MA,02109,https://google.de/blandit/mi/in/porttitor/pede/justo/eu.jsp?vitae=amet&quam=consectetuer&suspendisse=adipiscing&potenti=elit&nullam=proin&porttitor=interdum&lacus=mauris&at=non&turpis=ligula&donec=pellentesque&posuere=ultrices&metus=phasellus&vitae=id&ipsum=sapien&aliquam=in&non=sapien&mauris=iaculis&morbi=congue&non=vivamus&lectus=metus&aliquam=arcu&sit=adipiscing&amet=molestie&diam=hendrerit&in=at&magna=vulputate&bibendum=vitae&imperdiet=nisl&nullam=aenean&orci=lectus&pede=pellentesque&venenatis=eget&non=nunc&sodales=donec&sed=quis&tincidunt=orci&eu=eget&felis=orci&fusce=vehicula&posuere=condimentum&felis=curabitur&sed=in&lacus=libero&morbi=ut&sem=massa&mauris=volutpat&laoreet=convallis&ut=morbi&rhoncus=odio&aliquet=odio&pulvinar=elementum&sed=eu&nisl=interdum&nunc=eu&rhoncus=tincidunt&dui=in&vel=leo&sem=maecenas&sed=pulvinar&sagittis=lobortis&nam=est&congue=phasellus&risus=sit&semper=amet&porta=erat&volutpat=nulla&quam=tempus&pede=vivamus&lobortis=in&ligula=felis&sit=eu&amet=sapien&eleifend=cursus&pede=vestibulum&libero=proin&quis=eu&orci=mi&nullam=nulla&molestie=ac&nibh=enim&in=in&lectus=tempor&pellentesque=turpis&at=nec&nulla=euismod&suspendisse=scelerisque,Melodee Monteith,mmonteithr@privacy.gov.au,,http://dummyimage.com/182x100.png/dddddd/000000,2019-04-19 09:35:48,2021-12-27 04:37:24
29,Skinix,"Phasellus sit amet erat. Nulla tempus. Vivamus in felis eu sapien cursus vestibulum.

Proin eu mi. Nulla ac enim. In tempor, turpis nec euismod scelerisque, quam turpis adipiscing lorem, vitae mattis nibh ligula nec sem.",97940 Hauk Junction,Worcester,MA,01605,http://so-net.ne.jp/sapien/sapien/non.xml?at=volutpat&nunc=convallis&commodo=morbi&placerat=odio&praesent=odio&blandit=elementum&nam=eu&nulla=interdum&integer=eu&pede=tincidunt&justo=in&lacinia=leo&eget=maecenas&tincidunt=pulvinar&eget=lobortis&tempus=est&vel=phasellus&pede=sit&morbi=amet&porttitor=erat&lorem=nulla&id=tempus&ligula=vivamus&suspendisse=in&ornare=felis&consequat=eu&lectus=sapien&in=cursus&est=vestibulum&risus=proin&auctor=eu&sed=mi&tristique=nulla&in=ac&tempus=enim&sit=in&amet=tempor&sem=turpis&fusce=nec&consequat=euismod&nulla=scelerisque&nisl=quam&nunc=turpis&nisl=adipiscing&duis=lorem&bibendum=vitae&felis=mattis&sed=nibh&interdum=ligula&venenatis=nec&turpis=sem&enim=duis&blandit=aliquam&mi=convallis&in=nunc&porttitor=proin&pede=at&justo=turpis&eu=a&massa=pede&donec=posuere&dapibus=nonummy&duis=integer&at=non&velit=velit&eu=donec&est=diam&congue=neque&elementum=vestibulum&in=eget&hac=vulputate&habitasse=ut&platea=ultrices,Netta Cossom,ncossoms@ifeng.com,508-875-5317,http://dummyimage.com/139x100.png/5fa2dd/ffffff,2014-05-16 10:11:42,2023-09-12 13:08:28
30,Bluezoom,"Cras non velit nec nisi vulputate nonummy. Maecenas tincidunt lacus at velit. Vivamus vel nulla eget eros elementum pellentesque.

Quisque porta volutpat erat. Quisque erat eros, viverra eget, congue eget, semper rutrum, nulla. Nunc purus.

Phasellus in felis. Donec semper sapien a libero. Nam dui.",3 Nelson Alley,Cambridge,MA,02142,http://uol.com.br/molestie/lorem.jpg?nulla=parturient&nunc=montes&purus=nascetur&phasellus=ridiculus&in=mus&felis=etiam&donec=vel&semper=augue&sapien=vestibulum&a=rutrum&libero=rutrum&nam=neque&dui=aenean&proin=auctor&leo=gravida&odio=sem&porttitor=praesent&id=id&consequat=massa&in=id&consequat=nisl&ut=venenatis&nulla=lacinia&sed=aenean&accumsan=sit&felis=amet&ut=justo&at=morbi&dolor=ut&quis=odio&odio=cras&consequat=mi&varius=pede&integer=malesuada&ac=in&leo=imperdiet&pellentesque=et&ultrices=commodo&mattis=vulputate&odio=justo&donec=in&vitae=blandit&nisi=ultrices&nam=enim&ultrices=lorem,Delainey Fright,dfrightt@blogger.com,781-757-6162,http://dummyimage.com/169x100.png/cc0000/ffffff,2016-10-17 01:33:35,2021-06-16 00:59:30
31,Kamba,"Nam ultrices, libero non mattis pulvinar, nulla pede ullamcorper augue, a suscipit nulla elit ac nulla. Sed vel enim sit amet nunc viverra dapibus. Nulla suscipit ligula in lacus.",90 Commercial Alley,Waltham,MA,02453,http://last.fm/augue/luctus/tincidunt/nulla/mollis/molestie/lorem.png?morbi=nisl&odio=duis&odio=bibendum&elementum=felis&eu=sed&interdum=interdum&eu=venenatis&tincidunt=turpis&in=enim&leo=blandit&maecenas=mi&pulvinar=in,Ranique Stannislawski,rstannislawskiu@cornell.edu,508-878-5022,http://dummyimage.com/208x100.png/ff4444/ffffff,2017-06-16 06:07:27,2021-10-08 03:31:55
32,Fadeo,"Curabitur in libero ut massa volutpat convallis. Morbi odio odio, elementum eu, interdum eu, tincidunt in, leo. Maecenas pulvinar lobortis est.

Phasellus sit amet erat. Nulla tempus. Vivamus in felis eu sapien cursus vestibulum.

Proin eu mi. Nulla ac enim. In tempor, turpis nec euismod scelerisque, quam turpis adipiscing lorem, vitae mattis nibh ligula nec sem.",9 Ludington Pass,Boston,MA,02104,http://creativecommons.org/ligula/sit/amet/eleifend/pede.json?rhoncus=pretium&aliquet=nisl&pulvinar=ut&sed=volutpat&nisl=sapien&nunc=arcu&rhoncus=sed&dui=augue&vel=aliquam&sem=erat&sed=volutpat&sagittis=in&nam=congue&congue=etiam&risus=justo&semper=etiam&porta=pretium&volutpat=iaculis&quam=justo&pede=in&lobortis=hac&ligula=habitasse&sit=platea&amet=dictumst&eleifend=etiam&pede=faucibus&libero=cursus&quis=urna&orci=ut&nullam=tellus&molestie=nulla&nibh=ut&in=erat&lectus=id&pellentesque=mauris&at=vulputate&nulla=elementum&suspendisse=nullam&potenti=varius&cras=nulla&in=facilisi&purus=cras&eu=non&magna=velit&vulputate=nec&luctus=nisi&cum=vulputate&sociis=nonummy&natoque=maecenas&penatibus=tincidunt&et=lacus&magnis=at&dis=velit&parturient=vivamus&montes=vel&nascetur=nulla&ridiculus=eget&mus=eros&vivamus=elementum&vestibulum=pellentesque&sagittis=quisque&sapien=porta&cum=volutpat&sociis=erat&natoque=quisque&penatibus=erat&et=eros&magnis=viverra&dis=eget&parturient=congue&montes=eget,Florry Cardo,fcardov@prweb.com,318-866-3949,http://dummyimage.com/249x100.png/dddddd/000000,2016-10-27 07:18:26,2022-01-07 00:00:58
33,Vimbo,Duis consequat dui nec nisi volutpat eleifend. Donec ut dolor. Morbi vel lectus in quam fringilla rhoncus.,17271 Thompson Court,Boston,MA,02119,https://shinystat.com/tortor/duis/mattis/egestas.png?ipsum=libero&aliquam=nullam&non=sit&mauris=amet&morbi=turpis&non=elementum&lectus=ligula&aliquam=vehicula&sit=consequat&amet=morbi&diam=a&in=ipsum&magna=integer&bibendum=a&imperdiet=nibh&nullam=in&orci=quis&pede=justo&venenatis=maecenas&non=rhoncus&sodales=aliquam&sed=lacus&tincidunt=morbi&eu=quis&felis=tortor&fusce=id&posuere=nulla&felis=ultrices&sed=aliquet&lacus=maecenas&morbi=leo&sem=odio&mauris=condimentum&laoreet=id&ut=luctus&rhoncus=nec&aliquet=molestie&pulvinar=sed&sed=justo&nisl=pellentesque&nunc=viverra&rhoncus=pede&dui=ac&vel=diam&sem=cras&sed=pellentesque&sagittis=volutpat&nam=dui&congue=maecenas&risus=tristique&semper=est&porta=et&volutpat=tempus&quam=semper&pede=est&lobortis=quam&ligula=pharetra&sit=magna&amet=ac&eleifend=consequat&pede=metus&libero=sapien&quis=ut&orci=nunc&nullam=vestibulum&molestie=ante&nibh=ipsum&in=primis&lectus=in&pellentesque=faucibus&at=orci&nulla=luctus&suspendisse=et&potenti=ultrices&cras=posuere&in=cubilia&purus=curae&eu=mauris&magna=viverra&vulputate=diam&luctus=vitae&cum=quam&sociis=suspendisse&natoque=potenti&penatibus=nullam&et=porttitor&magnis=lacus&dis=at&parturient=turpis&montes=donec&nascetur=posuere&ridiculus=metus&mus=vitae&vivamus=ipsum&vestibulum=aliquam&sagittis=non&sapien=mauris&cum=morbi&sociis=non&natoque=lectus,Ingaborg Maylour,imaylourw@sciencedaily.com,978-648-6925,http://dummyimage.com/126x100.png/ff4444/ffffff,2015-01-18 02:55:03,2022-11-11 07:36:10
34,Riffpedia,"Proin leo odio, porttitor id, consequat in, consequat ut, nulla. Sed accumsan felis. Ut at dolor quis odio consequat varius.",39 Carberry Point,Springfield,MA,01152,http://360.cn/curae/duis/faucibus/accumsan.jpg?nunc=sem&nisl=sed&duis=sagittis&bibendum=nam&felis=congue&sed=risus&interdum=semper&venenatis=porta&turpis=volutpat&enim=quam&blandit=pede&mi=lobortis&in=ligula&porttitor=sit&pede=amet&justo=eleifend&eu=pede&massa=libero&donec=quis&dapibus=orci&duis=nullam&at=molestie&velit=nibh&eu=in&est=lectus&congue=pellentesque&elementum=at&in=nulla&hac=suspendisse&habitasse=potenti&platea=cras&dictumst=in&morbi=purus&vestibulum=eu&velit=magna&id=vulputate&pretium=luctus&iaculis=cum&diam=sociis&erat=natoque&fermentum=penatibus&justo=et&nec=magnis&condimentum=dis&neque=parturient&sapien=montes&placerat=nascetur&ante=ridiculus&nulla=mus&justo=vivamus&aliquam=vestibulum&quis=sagittis&turpis=sapien&eget=cum&elit=sociis&sodales=natoque&scelerisque=penatibus&mauris=et&sit=magnis&amet=dis&eros=parturient&suspendisse=montes&accumsan=nascetur&tortor=ridiculus&quis=mus&turpis=etiam&sed=vel&ante=augue&vivamus=vestibulum&tortor=rutrum&duis=rutrum&mattis=neque&egestas=aenean&metus=auctor&aenean=gravida&fermentum=sem&donec=praesent&ut=id&mauris=massa,Lishe D'Elia,ldeliax@eepurl.com,413-134-6434,http://dummyimage.com/135x100.png/ff4444/ffffff,2018-12-25 04:32:48,2022-12-20 17:32:32
35,Aimbu,"Duis bibendum. Morbi non quam nec dui luctus rutrum. Nulla tellus.

In sagittis dui vel nisl. Duis ac nibh. Fusce lacus purus, aliquet at, feugiat non, pretium quis, lectus.

Suspendisse potenti. In eleifend quam a odio. In hac habitasse platea dictumst.",06875 Manufacturers Alley,Boston,MA,02283,https://sciencedaily.com/non/mauris/morbi/non.jsp?dapibus=lacus&dolor=at&vel=turpis&est=donec&donec=posuere&odio=metus&justo=vitae&sollicitudin=ipsum&ut=aliquam&suscipit=non&a=mauris&feugiat=morbi&et=non&eros=lectus&vestibulum=aliquam&ac=sit&est=amet&lacinia=diam&nisi=in&venenatis=magna&tristique=bibendum&fusce=imperdiet&congue=nullam&diam=orci&id=pede&ornare=venenatis&imperdiet=non&sapien=sodales&urna=sed&pretium=tincidunt&nisl=eu&ut=felis&volutpat=fusce&sapien=posuere&arcu=felis&sed=sed&augue=lacus&aliquam=morbi&erat=sem&volutpat=mauris&in=laoreet&congue=ut&etiam=rhoncus&justo=aliquet&etiam=pulvinar&pretium=sed&iaculis=nisl&justo=nunc&in=rhoncus&hac=dui&habitasse=vel&platea=sem&dictumst=sed&etiam=sagittis&faucibus=nam&cursus=congue&urna=risus&ut=semper&tellus=porta&nulla=volutpat&ut=quam&erat=pede&id=lobortis&mauris=ligula&vulputate=sit&elementum=amet&nullam=eleifend&varius=pede&nulla=libero&facilisi=quis&cras=orci&non=nullam&velit=molestie&nec=nibh&nisi=in&vulputate=lectus&nonummy=pellentesque&maecenas=at&tincidunt=nulla&lacus=suspendisse&at=potenti&velit=cras&vivamus=in&vel=purus&nulla=eu&eget=magna&eros=vulputate&elementum=luctus&pellentesque=cum&quisque=sociis&porta=natoque,Leonerd Dimitriou,ldimitriouy@wisc.edu,,http://dummyimage.com/126x100.png/5fa2dd/ffffff,2020-06-15 11:21:20,2022-01-10 11:56:40
36,Quinu,"Nam ultrices, libero non mattis pulvinar, nulla pede ullamcorper augue, a suscipit nulla elit ac nulla. Sed vel enim sit amet nunc viverra dapibus. Nulla suscipit ligula in lacus.",78 Mandrake Junction,Boston,MA,02216,https://storify.com/dui/nec.js?in=ipsum&quis=primis&justo=in&maecenas=faucibus&rhoncus=orci&aliquam=luctus&lacus=et&morbi=ultrices&quis=posuere&tortor=cubilia&id=curae&nulla=donec&ultrices=pharetra&aliquet=magna&maecenas=vestibulum&leo=aliquet&odio=ultrices&condimentum=erat&id=tortor&luctus=sollicitudin&nec=mi&molestie=sit&sed=amet&justo=lobortis&pellentesque=sapien&viverra=sapien&pede=non&ac=mi&diam=integer&cras=ac&pellentesque=neque&volutpat=duis&dui=bibendum&maecenas=morbi&tristique=non&est=quam&et=nec&tempus=dui&semper=luctus&est=rutrum&quam=nulla&pharetra=tellus&magna=in&ac=sagittis&consequat=dui&metus=vel&sapien=nisl&ut=duis&nunc=ac&vestibulum=nibh&ante=fusce&ipsum=lacus&primis=purus&in=aliquet&faucibus=at&orci=feugiat&luctus=non&et=pretium&ultrices=quis&posuere=lectus&cubilia=suspendisse&curae=potenti&mauris=in&viverra=eleifend&diam=quam&vitae=a&quam=odio&suspendisse=in&potenti=hac&nullam=habitasse&porttitor=platea&lacus=dictumst&at=maecenas&turpis=ut&donec=massa&posuere=quis&metus=augue&vitae=luctus&ipsum=tincidunt&aliquam=nulla&non=mollis&mauris=molestie&morbi=lorem&non=quisque&lectus=ut&aliquam=erat&sit=curabitur&amet=gravida&diam=nisi&in=at&magna=nibh&bibendum=in&imperdiet=hac&nullam=habitasse,Gui Celiz,gcelizz@gnu.org,617-970-7184,http://dummyimage.com/201x100.png/dddddd/000000,2019-09-04 09:57:54,2023-10-24 08:52:10
37,Yakitri,"Donec diam neque, vestibulum eget, vulputate ut, ultrices vel, augue. Vestibulum ante ipsum primis in faucibus orci luctus et ultrices posuere cubilia Curae; Donec pharetra, magna vestibulum aliquet ultrices, erat tortor sollicitudin mi, sit amet lobortis sapien sapien non mi. Integer ac neque.

Duis bibendum. Morbi non quam nec dui luctus rutrum. Nulla tellus.

In sagittis dui vel nisl. Duis ac nibh. Fusce lacus purus, aliquet at, feugiat non, pretium quis, lectus.",219 Dwight Parkway,Waltham,MA,02453,http://blogs.com/id.html?interdum=venenatis&mauris=non&non=sodales&ligula=sed&pellentesque=tincidunt&ultrices=eu&phasellus=felis&id=fusce&sapien=posuere&in=felis&sapien=sed&iaculis=lacus&congue=morbi&vivamus=sem&metus=mauris&arcu=laoreet&adipiscing=ut&molestie=rhoncus&hendrerit=aliquet&at=pulvinar&vulputate=sed&vitae=nisl&nisl=nunc&aenean=rhoncus&lectus=dui&pellentesque=vel&eget=sem&nunc=sed&donec=sagittis&quis=nam&orci=congue&eget=risus&orci=semper&vehicula=porta&condimentum=volutpat&curabitur=quam&in=pede&libero=lobortis&ut=ligula&massa=sit&volutpat=amet&convallis=eleifend&morbi=pede&odio=libero&odio=quis&elementum=orci&eu=nullam&interdum=molestie&eu=nibh&tincidunt=in&in=lectus&leo=pellentesque&maecenas=at&pulvinar=nulla&lobortis=suspendisse&est=potenti&phasellus=cras&sit=in&amet=purus&erat=eu&nulla=magna&tempus=vulputate&vivamus=luctus&in=cum&felis=sociis&eu=natoque&sapien=penatibus&cursus=et&vestibulum=magnis&proin=dis&eu=parturient&mi=montes&nulla=nascetur&ac=ridiculus&enim=mus&in=vivamus&tempor=vestibulum&turpis=sagittis&nec=sapien&euismod=cum&scelerisque=sociis&quam=natoque&turpis=penatibus&adipiscing=et&lorem=magnis&vitae=dis&mattis=parturient&nibh=montes&ligula=nascetur&nec=ridiculus,Nan Ching,nching10@mozilla.org,978-637-6354,http://dummyimage.com/169x100.png/ff4444/ffffff,2016-02-09 19:17:38,2023-11-09 20:21:33
38,Twitterwire,,21 Bartelt Pass,Boston,MA,02119,https://guardian.co.uk/eros/elementum/pellentesque/quisque/porta.jpg?pede=duis&justo=faucibus&eu=accumsan&massa=odio&donec=curabitur&dapibus=convallis&duis=duis&at=consequat&velit=dui&eu=nec&est=nisi&congue=volutpat&elementum=eleifend&in=donec&hac=ut&habitasse=dolor&platea=morbi&dictumst=vel&morbi=lectus&vestibulum=in&velit=quam&id=fringilla&pretium=rhoncus&iaculis=mauris&diam=enim&erat=leo&fermentum=rhoncus&justo=sed&nec=vestibulum&condimentum=sit&neque=amet&sapien=cursus&placerat=id&ante=turpis&nulla=integer,Vale Gaythorpe,vgaythorpe11@unc.edu,508-187-2502,http://dummyimage.com/200x100.png/ff4444/ffffff,2015-04-04 02:29:10,2021-02-21 00:34:14
39,Twitterlist,"Praesent id massa id nisl venenatis lacinia. Aenean sit amet justo. Morbi ut odio.

Cras mi pede, malesuada in, imperdiet et, commodo vulputate, justo. In blandit ultrices enim. Lorem ipsum dolor sit amet, consectetuer adipiscing elit.

Proin interdum mauris non ligula pellentesque ultrices. Phasellus id sapien in sapien iaculis congue. Vivamus metus arcu, adipiscing molestie, hendrerit at, vulputate vitae, nisl.",69908 Memorial Avenue,Boston,MA,02283,https://jigsy.com/justo/eu/massa/donec/dapibus.html?lacus=consequat&purus=metus&aliquet=sapien&at=ut&feugiat=nunc&non=vestibulum&pretium=ante&quis=ipsum&lectus=primis&suspendisse=in&potenti=faucibus&in=orci&eleifend=luctus&quam=et&a=ultrices&odio=posuere&in=cubilia&hac=curae&habitasse=mauris&platea=viverra&dictumst=diam&maecenas=vitae&ut=quam&massa=suspendisse&quis=potenti&augue=nullam&luctus=porttitor&tincidunt=lacus&nulla=at&mollis=turpis&molestie=donec&lorem=posuere&quisque=metus&ut=vitae&erat=ipsum&curabitur=aliquam&gravida=non&nisi=mauris&at=morbi&nibh=non&in=lectus&hac=aliquam&habitasse=sit&platea=amet&dictumst=diam&aliquam=in&augue=magna&quam=bibendum&sollicitudin=imperdiet&vitae=nullam&consectetuer=orci&eget=pede&rutrum=venenatis&at=non&lorem=sodales&integer=sed&tincidunt=tincidunt&ante=eu&vel=felis,Shae Vampouille,svampouille12@statcounter.com,978-594-2136,,2016-03-13 22:39:31,2023-01-05 12:18:55
40,Skimia,"In sagittis dui vel nisl. Duis ac nibh. Fusce lacus purus, aliquet at, feugiat non, pretium quis, lectus.

Suspendisse potenti. In eleifend quam a odio. In hac habitasse platea dictumst.

Maecenas ut massa quis augue luctus tincidunt. Nulla mollis molestie lorem. Quisque ut erat.",370 North Avenue,Springfield,MA,01152,https://xing.com/ante/vivamus/tortor/duis/mattis.jsp?quis=in&lectus=felis&suspendisse=donec&potenti=semper&in=sapien&eleifend=a&quam=libero&a=nam&odio=dui&in=proin&hac=leo&habitasse=odio&platea=porttitor&dictumst=id&maecenas=consequat&ut=in&massa=consequat&quis=ut&augue=nulla&luctus=sed&tincidunt=accumsan&nulla=felis&mollis=ut&molestie=at&lorem=dolor&quisque=quis&ut=odio&erat=consequat&curabitur=varius&gravida=integer&nisi=ac,Joly Siberry,jsiberry13@accuweather.com,413-976-3147,http://dummyimage.com/160x100.png/dddddd/000000,2015-07-18 05:47:07,2021-06-21 07:44:25
